STARLINK-3269           
1 50194U 21125AQ  24158.49334789 -.00000787  00000+0 -31339-4 0  9993
2 50194  53.2176 237.5739 0001462 110.6137 249.5012 15.08846775139987
STARLINK-3266           
1 50195U 21125AR  24159.36455833  .00003893  00000+0  26258-3 0  9997
2 50195  53.2159 233.6550 0001233  82.0870 278.0262 15.08839023139587
STARLINK-3267           
1 50197U 21125AT  24159.48231088  .00000986  00000+0  80019-4 0  9992
2 50197  53.2157 233.1233 0001137  96.1357 263.9764 15.08837184139608
STARLINK-3264           
1 50198U 21125AU  24159.40134748 -.00002830  00000+0 -15967-3 0  9991
2 50198  53.2178 233.4874 0001733  75.5792 284.5392 15.08858600139592
STARLINK-3270           
1 50199U 21125AV  24158.52183685  .00003177  00000+0  21758-3 0  9996
2 50199  53.2165 237.4387 0001291 104.6223 255.4912 15.08841431139931
STARLINK-3235           
1 50200U 21125AW  24158.47767384  .00002408  00000+0  16935-3 0  9994
2 50200  53.2166 237.5943 0000899  85.4530 274.6564 15.08835158139940
STARLINK-3255           
1 50201U 21125AX  24158.47127954  .00002079  00000+0  14869-3 0  9996
2 50201  53.2167 237.6739 0001462  80.5827 279.5330 15.08837682139936
STARLINK-3256           
1 50202U 21125AY  24159.37926800 -.00001689  00000+0 -88068-4 0  9995
2 50202  53.2148 233.5870 0001129  82.9456 277.1664 15.08833478139585
STARLINK-3257           
1 50203U 21125AZ  24158.48599489  .00000876  00000+0  73119-4 0  9992
2 50203  53.2168 237.6851 0001339  83.2186 276.8958 15.08850671139990
STARLINK-3254           
1 50204U 21125BA  24159.38760234  .00004269  00000+0  28620-3 0  9997
2 50204  53.2161 233.5593 0001583  82.0075 278.1097 15.08834887136994
STARLINK-3260           
1 50205U 21125BB  24159.39403229  .00002887  00000+0  19939-3 0  9994
2 50205  53.2150 203.5193 0001396  86.1838 273.9314 15.08843855140029
STARLINK-3258           
1 50206U 21125BC  24159.38022490  .00003794  00000+0  25634-3 0  9998
2 50206  53.2154 233.4790 0001205  96.6323 263.4806 15.08839779137995
STARLINK-3262           
1 50207U 21125BD  24159.39399894  .00001530  00000+0  11420-3 0  9999
2 50207  53.2182 233.5250 0001470  98.3078 261.8081 15.08837603138069
STARLINK-3321           
1 50803U 22001A   24158.31851862 -.00001043  00000+0 -47476-4 0  9996
2 50803  53.2147 168.3468 0001185  91.7341 268.3787 15.08829340133587
STARLINK-3323           
1 50804U 22001B   24158.28631518 -.00000854  00000+0 -35590-4 0  9990
2 50804  53.2161 158.4903 0001128  91.7011 268.4110 15.08835329133719
STARLINK-3333           
1 50805U 22001C   24158.28262935 -.00000314  00000+0 -16476-5 0  9998
2 50805  53.2170 158.5056 0001430  97.8715 262.2440 15.08841623133716
STARLINK-3335           
1 50806U 22001D   24158.27895339 -.00000604  00000+0 -19830-4 0  9996
2 50806  53.2172 158.5244 0001428  98.2501 261.8653 15.08840672133717
STARLINK-3355           
1 50808U 22001F   24159.00023032  .00003982  00000+0  26818-3 0  9996
2 50808  53.2148 155.2877 0001381  97.2304 262.8845 15.08833912135070
STARLINK-3232           
1 50809U 22001G   24158.27527019 -.00004084  00000+0 -23868-3 0  9997
2 50809  53.2166 158.5403 0001157  86.1401 273.9723 15.08839076133712
STARLINK-3348           
1 50810U 22001H   24158.92209717  .00008432  00000+0  74442-4 0  9997
2 50810  53.2153 122.1319 0001154  75.9772 284.1375 15.69692466135533
STARLINK-3347           
1 50811U 22001J   24158.72791522  .00000215  00000+0  31575-4 0  9997
2 50811  53.2164 156.5453 0001164  91.9986 268.1139 15.08840755135069
STARLINK-3338           
1 50812U 22001K   24158.43352561  .00001064  00000+0  84927-4 0  9994
2 50812  53.2164 157.9368 0001332  93.2502 266.8643 15.08837928133731
STARLINK-3349           
1 50813U 22001L   24158.31943168 -.00000853  00000+0 -35526-4 0  9999
2 50813  53.2147 158.2937 0001345  68.6212 291.4923 15.08845635133725
STARLINK-3324           
1 50814U 22001M   24158.30379964 -.00000726  00000+0 -27509-4 0  9997
2 50814  53.2152 168.4126 0001494  97.3057 262.8105 15.08844503133587
STARLINK-3234           
1 50815U 22001N   24158.31483661 -.00000822  00000+0 -33566-4 0  9996
2 50815  53.2151 168.3641 0001458  88.9367 271.1792 15.08833402133589
STARLINK-3342           
1 50816U 22001P   24159.01403482 -.00000712  00000+0 -26633-4 0  9993
2 50816  53.2165 165.2267 0001364 102.6671 257.4474 15.08853024134962
STARLINK-3341           
1 50817U 22001Q   24158.31115517 -.00000056  00000+0  14543-4 0  9992
2 50817  53.2155 168.3785 0001388  93.6716 266.4435 15.08836866133585
STARLINK-3336           
1 50818U 22001R   24158.29275585 -.00000471  00000+0 -11514-4 0  9999
2 50818  53.2162 168.4617 0001384  87.6009 272.5142 15.08838723133579
STARLINK-3327           
1 50819U 22001S   24159.02875093  .00000471  00000+0  47659-4 0  9999
2 50819  53.2154 165.1584 0001396  95.3632 264.7519 15.08839975134896
STARLINK-3339           
1 50820U 22001T   24159.01035201 -.00001798  00000+0 -94895-4 0  9998
2 50820  53.2186 165.2429 0001568  79.8028 280.3141 15.08849785134962
STARLINK-3346           
1 50821U 22001U   24159.05082882 -.00000591  00000+0 -19031-4 0  9999
2 50821  53.2170 164.9452 0001373  91.6959 268.4190 15.08827200134944
STARLINK-3343           
1 50822U 22001V   24159.33419363  .00002880  00000+0  19893-3 0  9995
2 50822  53.2160 163.7870 0001274  95.9923 264.1215 15.08844738134983
STARLINK-3334           
1 50823U 22001W   24158.30747073 -.00000786  00000+0 -31304-4 0  9991
2 50823  53.2154 168.3954 0001275  98.1676 261.9461 15.08839720133580
STARLINK-3340           
1 50824U 22001X   24159.58334491  .01368651  00000+0  29279-1 0  9991
2 50824  53.2151 161.2253 0001282  80.6068 238.4942 15.41492318135064
STARLINK-3332           
1 50825U 22001Y   24159.07291455  .00001010  00000+0  81535-4 0  9996
2 50825  53.2177 164.9622 0001455  84.9257 275.1901 15.08839061134966
STARLINK-3337           
1 50826U 22001Z   24159.00186925  .00075810  00000+0  24003-2 0  9999
2 50826  53.2104 150.0961 0008721  37.2032 322.9573 15.32063812135185
STARLINK-3329           
1 50827U 22001AA  24158.75276179  .00001932  00000+0  13941-3 0  9996
2 50827  53.2165 166.3982 0001334  91.6843 268.4302 15.08848670134913
STARLINK-3290           
1 50828U 22001AB  24159.33513633  .00000906  00000+0  75001-4 0  9997
2 50828  53.2167 163.6756 0001359  86.3152 273.7995 15.08841988135010
STARLINK-3294           
1 50829U 22001AC  24158.42893143 -.00002558  00000+0 -14273-3 0  9994
2 50829  53.2155 167.8512 0001278  91.6018 268.5120 15.08822469133590
STARLINK-3278           
1 50830U 22001AD  24158.38015519 -.00000590  00000+0 -19006-4 0  9998
2 50830  53.2157 178.0722 0001326  75.0711 285.0428 15.08840686133452
STARLINK-3299           
1 50831U 22001AE  24158.32588611 -.00000773  00000+0 -30460-4 0  9991
2 50831  53.2165 168.3832 0001382  92.7928 267.3222 15.08833255133587
STARLINK-3328           
1 50832U 22001AF  24158.91103660  .00000849  00000+0  71395-4 0  9998
2 50832  53.2158 175.7368 0001311  87.0931 273.0211 15.08839831134780
STARLINK-3316           
1 50833U 22001AG  24158.62159354  .00030103  00000+0  71038-3 0  9997
2 50833  53.2030 128.1181 0008842  18.1625 341.9695 15.41618606135487
STARLINK-3331           
1 50834U 22001AH  24158.43167524 -.00000201  00000+0  54462-5 0  9996
2 50834  53.2176 177.8418 0001453  95.9289 264.1868 15.08839765133450
STARLINK-3310           
1 50835U 22001AJ  24159.36272948  .00002384  00000+0  16783-3 0  9992
2 50835  53.2161 173.7760 0001254  83.3289 276.7846 15.08842100134857
STARLINK-3330           
1 50836U 22001AK  24159.34157492 -.00000020  00000+0  16815-4 0  9990
2 50836  53.2160 173.5326 0001349  73.4402 286.6738 15.08831145134852
STARLINK-3318           
1 50837U 22001AL  24159.38939458  .00000226  00000+0  32275-4 0  9990
2 50837  53.2163 163.5404 0001311  91.9264 268.1878 15.08840364134945
STARLINK-3322           
1 50838U 22001AM  24158.31989693 -.00000238  00000+0  31279-5 0  9997
2 50838  53.2154 173.3315 0001327  91.8714 268.2430 15.08832303133513
STARLINK-3320           
1 50839U 22001AN  24159.34064681 -.00000511  00000+0 -14036-4 0  9999
2 50839  53.2161 173.7612 0001361  92.9804 267.1344 15.08826377134861
STARLINK-3295           
1 50840U 22001AP  24159.33695242  .00000585  00000+0  54858-4 0  9998
2 50840  53.2167 173.7766 0001334  92.9886 267.1258 15.08839152134879
STARLINK-3300           
1 50841U 22001AQ  24159.34799541  .00000430  00000+0  45128-4 0  9996
2 50841  53.2153 173.7236 0001318  84.6687 275.4455 15.08839129134893
STARLINK-3302           
1 50842U 22001AR  24159.06831272  .00000318  00000+0  38044-4 0  9998
2 50842  53.2139 174.9826 0001433  90.8511 269.2645 15.08838920134833
STARLINK-3325           
1 50843U 22001AS  24159.35535787  .00000679  00000+0  60772-4 0  9996
2 50843  53.2166 173.6940 0001332  89.3428 270.7717 15.08836950134798
STARLINK-3326           
1 50844U 22001AT  24159.05727016  .00000664  00000+0  59773-4 0  9995
2 50844  53.2149 175.0294 0000997  90.0867 270.0240 15.08836883134834
STARLINK-3230           
1 50845U 22001AU  24159.03519179  .00001738  00000+0  12725-3 0  9991
2 50845  53.2169 175.1311 0001402  84.3749 275.7403 15.08840291134780
STARLINK-3308           
1 50846U 22001AV  24159.32960651  .00000103  00000+0  24573-4 0  9999
2 50846  53.2159 173.9251 0001298  94.6753 265.4387 15.08838115134870
STARLINK-3319           
1 50847U 22001AW  24159.34527586  .00002582  00000+0  18021-3 0  9991
2 50847  53.2154 173.7464 0001145  94.7918 265.3205 15.08849490134792
STARLINK-3315           
1 50848U 22001AX  24159.04991341  .00001396  00000+0  10581-3 0  9998
2 50848  53.2163 175.0639 0001488  90.1576 269.9587 15.08834561134866
STARLINK-3311           
1 50849U 22001AY  24159.06095748  .00004778  00000+0  31799-3 0  9998
2 50849  53.2139 175.0145 0001235  78.8207 281.2924 15.08849164134751
